[{"OBJECT_NAME":"STARLINK-4620","OBJECT_ID":"2022-105AC","EPOCH":"2026-03-09T16:06:05.683968","MEAN_MOTION":15.01259647,"ECCENTRICITY":0.0004111,"INCLINATION":97.601,"RA_OF_ASC_NODE":310.1957,"ARG_OF_PERICENTER":45.2183,"MEAN_ANOMALY":314.9376,"EPHEMERIS_TYPE":0,"CLASSIFICATION_TYPE":"U","NORAD_CAT_ID":53674,"ELEMENT_SET_NO":999,"REV_AT_EPOCH":19323,"BSTAR":-1.934145e-6,"MEAN_MOTION_DOT":-8.3e-7,"MEAN_MOTION_DDOT":0},{"OBJECT_NAME":"PEGASUS DEB","OBJECT_ID":"1994-029AFE","EPOCH":"2026-03-09T22:01:13.596672","MEAN_MOTION":14.67197331,"ECCENTRICITY":0.01795257,"INCLINATION":81.944,"RA_OF_ASC_NODE":137.8868,"ARG_OF_PERICENTER":239.0776,"MEAN_ANOMALY":119.2676,"EPHEMERIS_TYPE":0,"CLASSIFICATION_TYPE":"U","NORAD_CAT_ID":39319,"ELEMENT_SET_NO":999,"REV_AT_EPOCH":26377,"BSTAR":0.00029247934,"MEAN_MOTION_DOT":2.119e-5,"MEAN_MOTION_DDOT":0}]
